SL-4 R/B                
1 39679U 14021B   26032.70973520  .00010433  00000+0  24165-3 0  9999
2 39679  51.6072 152.6438 0099053 331.8342  27.7304 15.38045224650734
ALOS-2                  
1 39766U 14029A   26032.94111949 -.00000448  00000+0 -53104-4 0  9992
2 39766  97.9227 132.0524 0001419  97.0769 263.0604 14.79468434631583
YAOGAN-29               
1 41038U 15069A   26032.96625858  .00000773  00000+0  10191-3 0  9990
2 41038  98.0180  61.2944 0002876  97.2583 262.8958 14.82953421550589
ASTRO-H (HITOMI)        
1 41337U 16012A   26032.93546910  .00002684  00000+0  15654-3 0  9991
2 41337  30.9978 227.2323 0009908 333.2254  26.7872 15.09735836546829
HXMT (HUIYAN)           
1 42758U 17034A   26032.96433125  .00004463  00000+0  23102-3 0  9994
2 42758  43.0124 215.2190 0031767   6.3895 353.7352 15.16979691477119
CZ-2C R/B               
1 43521U 18054D   26032.80794964  .00253164  24468-4  73635-3 0  9999
2 43521  35.1294 190.8633 0013647 314.2789  45.6829 15.91659946423149
SAOCOM 1A               
1 43641U 18076A   26032.97988068  .00000369  00000+0  52854-4 0  9993
2 43641  97.8859 221.6595 0001383  83.8232 276.3139 14.82148870396076
H-2A R/B                
1 43682U 18084L   26032.55377791  .00018619  00000+0  46752-3 0  9992
2 43682  98.8756 242.2621 0026152 147.1804 213.1068 15.39723690400211
SAOCOM 1B               
1 46265U 20059A   26032.94363856  .00001187  00000+0  15565-3 0  9997
2 46265  97.8856 220.7224 0001358  85.6775 274.4593 14.82157154293457
CSS (TIANHE)            
1 48274U 21035A   26031.38642198  .00028253  00000+0  32371-3 0  9997
2 48274  41.4674  74.8264 0008909  46.9753 313.1831 15.61427822271787
COSMOS 2550             
1 48865U 21056A   26026.13240542 -.00000181  00000+0  32270-6 0  9992
2 48865  67.1441 169.6578 0008309 269.8947  90.1255 15.33840202256938
CZ-2C R/B               
1 52794U 22058K   26032.67142707  .00024334  00000+0  39247-3 0  9994
2 52794  50.1891 143.2094 0042506  48.2624 312.1968 15.51704728204533
